[
    {
        "OBJECT_NAME": "BEIDOU-3 M13 (C32)",
        "OBJECT_ID": "2018-072A",
        "EPOCH": "2025-11-17T10:31:23.260224",
        "MEAN_MOTION": 1.86230957,
        "ECCENTRICITY": 0.0004987,
        "INCLINATION": 56.4377,
        "RA_OF_ASC_NODE": 69.658,
        "ARG_OF_PERICENTER": 300.157,
        "MEAN_ANOMALY": 59.7756,
        "EPHEMERIS_TYPE": 0,
        "CLASSIFICATION_TYPE": "U",
        "NORAD_CAT_ID": 43622,
        "ELEMENT_SET_NO": 999,
        "REV_AT_EPOCH": 4871,
        "BSTAR": 0,
        "MEAN_MOTION_DOT": -6.5e-7,
        "MEAN_MOTION_DDOT": 0
    },
    {
        "OBJECT_NAME": "BEIDOU-3 M14 (C33)",
        "OBJECT_ID": "2018-072B",
        "EPOCH": "2025-11-17T07:17:39.626304",
        "MEAN_MOTION": 1.8623097,
        "ECCENTRICITY": 0.0002672,
        "INCLINATION": 56.4393,
        "RA_OF_ASC_NODE": 69.6564,
        "ARG_OF_PERICENTER": 346.15,
        "MEAN_ANOMALY": 13.8247,
        "EPHEMERIS_TYPE": 0,
        "CLASSIFICATION_TYPE": "U",
        "NORAD_CAT_ID": 43623,
        "ELEMENT_SET_NO": 999,
        "REV_AT_EPOCH": 4870,
        "BSTAR": 0,
        "MEAN_MOTION_DOT": -6.5e-7,
        "MEAN_MOTION_DDOT": 0
    },
    {
        "OBJECT_NAME": "BEIDOU-3 M16 (C35)",
        "OBJECT_ID": "2018-078A",
        "EPOCH": "2025-11-17T23:58:40.954368",
        "MEAN_MOTION": 1.86232407,
        "ECCENTRICITY": 0.0006655,
        "INCLINATION": 54.2845,
        "RA_OF_ASC_NODE": 307.386,
        "ARG_OF_PERICENTER": 17.5457,
        "MEAN_ANOMALY": 342.4699,
        "EPHEMERIS_TYPE": 0,
        "CLASSIFICATION_TYPE": "U",
        "NORAD_CAT_ID": 43647,
        "ELEMENT_SET_NO": 999,
        "REV_AT_EPOCH": 4822,
        "BSTAR": 0,
        "MEAN_MOTION_DOT": -8.3e-7,
        "MEAN_MOTION_DDOT": 0
    },
    {
        "OBJECT_NAME": "BEIDOU-3 M15 (C34)",
        "OBJECT_ID": "2018-078B",
        "EPOCH": "2025-11-18T03:04:43.925952",
        "MEAN_MOTION": 1.86232306,
        "ECCENTRICITY": 0.0003283,
        "INCLINATION": 54.2802,
        "RA_OF_ASC_NODE": 307.3825,
        "ARG_OF_PERICENTER": 15.7604,
        "MEAN_ANOMALY": 344.2421,
        "EPHEMERIS_TYPE": 0,
        "CLASSIFICATION_TYPE": "U",
        "NORAD_CAT_ID": 43648,
        "ELEMENT_SET_NO": 999,
        "REV_AT_EPOCH": 4824,
        "BSTAR": 0,
        "MEAN_MOTION_DOT": -8.3e-7,
        "MEAN_MOTION_DDOT": 0
    },
    {
        "OBJECT_NAME": "BEIDOU-3 G1 (C59)",
        "OBJECT_ID": "2018-085A",
        "EPOCH": "2025-11-18T04:35:14.147808",
        "MEAN_MOTION": 1.00270252,
        "ECCENTRICITY": 0.0001986,
        "INCLINATION": 2.5444,
        "RA_OF_ASC_NODE": 103.7485,
        "ARG_OF_PERICENTER": 49.2528,
        "MEAN_ANOMALY": 113.4145,
        "EPHEMERIS_TYPE": 0,
        "CLASSIFICATION_TYPE": "U",
        "NORAD_CAT_ID": 43683,
        "ELEMENT_SET_NO": 999,
        "REV_AT_EPOCH": 2594,
        "BSTAR": 0,
        "MEAN_MOTION_DOT": -2.58e-6,
        "MEAN_MOTION_DDOT": 0
    },
    {
        "OBJECT_NAME": "COSMOS 2529 (757)",
        "OBJECT_ID": "2018-086A",
        "EPOCH": "2025-11-18T00:21:07.386048",
        "MEAN_MOTION": 2.13102027,
        "ECCENTRICITY": 0.000779,
        "INCLINATION": 64.2914,
        "RA_OF_ASC_NODE": 199.7239,
        "ARG_OF_PERICENTER": 255.4236,
        "MEAN_ANOMALY": 104.5803,
        "EPHEMERIS_TYPE": 0,
        "CLASSIFICATION_TYPE": "U",
        "NORAD_CAT_ID": 43687,
        "ELEMENT_SET_NO": 999,
        "REV_AT_EPOCH": 5478,
        "BSTAR": 0,
        "MEAN_MOTION_DOT": 6.0e-7,
        "MEAN_MOTION_DDOT": 0
    },
    {
        "OBJECT_NAME": "BEIDOU-3 M17 (C36)",
        "OBJECT_ID": "2018-093A",
        "EPOCH": "2025-11-17T11:28:51.855744",
        "MEAN_MOTION": 1.86228495,
        "ECCENTRICITY": 0.00067554,
        "INCLINATION": 54.1724,
        "RA_OF_ASC_NODE": 189.4797,
        "ARG_OF_PERICENTER": 305.2379,
        "MEAN_ANOMALY": 232.9952,
        "EPHEMERIS_TYPE": 0,
        "CLASSIFICATION_TYPE": "U",
        "NORAD_CAT_ID": 43706,
        "ELEMENT_SET_NO": 999,
        "REV_AT_EPOCH": 4759,
        "BSTAR": 0,
        "MEAN_MOTION_DOT": 7.1e-7,
        "MEAN_MOTION_DDOT": 0
    },
    {
        "OBJECT_NAME": "BEIDOU-3 M18 (C37)",
        "OBJECT_ID": "2018-093B",
        "EPOCH": "2025-11-17T01:46:21.915264",
        "MEAN_MOTION": 1.86226769,
        "ECCENTRICITY": 0.00065939,
        "INCLINATION": 54.1732,
        "RA_OF_ASC_NODE": 189.4853,
        "ARG_OF_PERICENTER": 347.5069,
        "MEAN_ANOMALY": 12.5747,
        "EPHEMERIS_TYPE": 0,
        "CLASSIFICATION_TYPE": "U",
        "NORAD_CAT_ID": 43707,
        "ELEMENT_SET_NO": 999,
        "REV_AT_EPOCH": 4758,
        "BSTAR": 0,
        "MEAN_MOTION_DOT": 6.7e-7,
        "MEAN_MOTION_DDOT": 0
    },
    {
        "OBJECT_NAME": "GPS BIII-1  (PRN 04)",
        "OBJECT_ID": "2018-109A",
        "EPOCH": "2025-11-17T20:22:29.648928",
        "MEAN_MOTION": 2.00553069,
        "ECCENTRICITY": 0.0036928,
        "INCLINATION": 55.5542,
        "RA_OF_ASC_NODE": 100.5293,
        "ARG_OF_PERICENTER": 194.0573,
        "MEAN_ANOMALY": 337.8808,
        "EPHEMERIS_TYPE": 0,
        "CLASSIFICATION_TYPE": "U",
        "NORAD_CAT_ID": 43873,
        "ELEMENT_SET_NO": 999,
        "REV_AT_EPOCH": 5083,
        "BSTAR": 0,
        "MEAN_MOTION_DOT": 8.0e-8,
        "MEAN_MOTION_DDOT": 0
    },
    {
        "OBJECT_NAME": "BEIDOU-3 IGSO-1 (C38)",
        "OBJECT_ID": "2019-023A",
        "EPOCH": "2025-11-16T17:57:22.499712",
        "MEAN_MOTION": 1.00252858,
        "ECCENTRICITY": 0.0026899,
        "INCLINATION": 58.397,
        "RA_OF_ASC_NODE": 39.8456,
        "ARG_OF_PERICENTER": 221.1206,
        "MEAN_ANOMALY": 180.0641,
        "EPHEMERIS_TYPE": 0,
        "CLASSIFICATION_TYPE": "U",
        "NORAD_CAT_ID": 44204,
        "ELEMENT_SET_NO": 999,
        "REV_AT_EPOCH": 508,
        "BSTAR": 0,
        "MEAN_MOTION_DOT": -2.36e-6,
        "MEAN_MOTION_DDOT": 0
    },
    {
        "OBJECT_NAME": "BEIDOU-2 G8 (C01)",
        "OBJECT_ID": "2019-027A",
        "EPOCH": "2025-11-17T23:28:12.701856",
        "MEAN_MOTION": 1.00270064,
        "ECCENTRICITY": 0.0007976,
        "INCLINATION": 1.5976,
        "RA_OF_ASC_NODE": 74.6388,
        "ARG_OF_PERICENTER": 256.6396,
        "MEAN_ANOMALY": 222.5974,
        "EPHEMERIS_TYPE": 0,
        "CLASSIFICATION_TYPE": "U",
        "NORAD_CAT_ID": 44231,
        "ELEMENT_SET_NO": 999,
        "REV_AT_EPOCH": 2396,
        "BSTAR": 0,
        "MEAN_MOTION_DOT": -2.3e-6,
        "MEAN_MOTION_DDOT": 0
    },
    {
        "OBJECT_NAME": "COSMOS 2534 (758)",
        "OBJECT_ID": "2019-030A",
        "EPOCH": "2025-11-17T01:51:53.247168",
        "MEAN_MOTION": 2.13102216,
        "ECCENTRICITY": 0.0009563,
        "INCLINATION": 64.3646,
        "RA_OF_ASC_NODE": 199.7577,
        "ARG_OF_PERICENTER": 282.7086,
        "MEAN_ANOMALY": 212.893,
        "EPHEMERIS_TYPE": 0,
        "CLASSIFICATION_TYPE": "U",
        "NORAD_CAT_ID": 44299,
        "ELEMENT_SET_NO": 999,
        "REV_AT_EPOCH": 5040,
        "BSTAR": 0,
        "MEAN_MOTION_DOT": 4.9e-7,
        "MEAN_MOTION_DDOT": 0
    },
    {
        "OBJECT_NAME": "BEIDOU-3 IGSO-2 (C39)",
        "OBJECT_ID": "2019-035A",
        "EPOCH": "2025-11-15T09:48:21.381120",
        "MEAN_MOTION": 1.00279963,
        "ECCENTRICITY": 0.00372194,
        "INCLINATION": 55.2189,
        "RA_OF_ASC_NODE": 160.7421,
        "ARG_OF_PERICENTER": 202.2043,
        "MEAN_ANOMALY": 318.2327,
        "EPHEMERIS_TYPE": 0,
        "CLASSIFICATION_TYPE": "U",
        "NORAD_CAT_ID": 44337,
        "ELEMENT_SET_NO": 999,
        "REV_AT_EPOCH": 2352,
        "BSTAR": 0,
        "MEAN_MOTION_DOT": -4.9e-7,
        "MEAN_MOTION_DDOT": 0
    }
]